{
  "norad_id": 57932,
  "name": "STARLINK-30471",
  "history": [
    {
      "epoch": "2026-03-28T17:05:47.556672",
      "apogee_km": 486.4507970589293,
      "perigee_km": 484.57207920844303,
      "latitude_deg": -36.76400413667338,
      "longitude_deg": 41.58617408014834,
      "semi_major_axis_km": 6863.648438133686,
      "eccentricity": 0.00013686,
      "inclination_deg": 43.0021,
      "raan_deg": 217.2244,
      "arg_perigee_deg": 275.1161,
      "mean_anomaly_deg": 84.9535,
      "mean_motion_rev_day": 15.26758042
    },
    {
      "epoch": "2026-03-29T00:56:49.585920",
      "apogee_km": 486.38253280526715,
      "perigee_km": 484.60347990761966,
      "latitude_deg": 1.0340956903184848,
      "longitude_deg": 72.98842880013399,
      "semi_major_axis_km": 6863.630006356443,
      "eccentricity": 0.0001296,
      "inclination_deg": 43.001,
      "raan_deg": 215.3797,
      "arg_perigee_deg": 271.9468,
      "mean_anomaly_deg": 88.1235,
      "mean_motion_rev_day": 15.26764192
    }
  ]
}